1 41175U 15079B   17328.18039066  .00000061  00000-0  00000+0 0  9990
2 41175  54.9145 187.2959 0002416 316.3155  43.7564  1.70473377 12052
